NORAD_CAT_ID,OBJECT_NAME,OBJECT_TYPE,EPOCH,MEAN_MOTION,ECCENTRICITY,INCLINATION,RA_OF_ASC_NODE,ARG_OF_PERICENTER,MEAN_ANOMALY,BSTAR,MEAN_MOTION_DOT,MEAN_MOTION_DDOT,TLE_LINE0,TLE_LINE1,TLE_LINE2,SEMIMAJOR_AXIS,PERIOD,APOGEE,PERIGEE,DECAYED
56786.0,STARLINK-6341,PAYLOAD,2023-06-13 18:00:00,15.77109481,0.0003548,70.0052,15.48,268.8196,54.2657,-0.0062744,-0.00922483,0.0,0 STARLINK-6341,1 56786U 23078V   23164.75001157 -.00922483  00000-0 -62744-2 0  9999,2 56786  70.0052  15.4800 0003548 268.8196  54.2657 15.77109481  2426,6716.772,91.306,341.02,336.254,0.0
56786.0,STARLINK-6341,PAYLOAD,2023-06-13 22:00:00,15.76753909,0.00033,70.005,15.0067,273.4291,275.5328,-0.0059126,-0.00861723,0.0,0 STARLINK-6341,1 56786U 23078V   23164.91667824 -.00861723  00000-0 -59126-2 0  9995,2 56786  70.0050  15.0067 0003300 273.4291 275.5328 15.76753909  1307,6717.782,91.327,341.864,337.43,0.0
56786.0,STARLINK-6341,PAYLOAD,2023-06-14 14:00:01,15.75504202,0.0003478,70.0051,13.1153,267.8188,102.6577,-0.0068749,-0.0093943,0.0,0 STARLINK-6341,1 56786U 23078V   23165.58334491 -.00939430  00000-0 -68749-2 0  9992,2 56786  70.0051  13.1153 0003478 267.8188 102.6577 15.75504202  1306,6721.334,91.399,345.536,340.861,0.0
56786.0,STARLINK-6341,PAYLOAD,2023-06-14 20:00:01,15.74964303,0.0003472,70.005,12.4069,271.5756,76.1945,-0.0065271,-0.00877548,0.0,0 STARLINK-6341,1 56786U 23078V   23165.83334491 -.00877548  00000-0 -65271-2 0  9998,2 56786  70.0050  12.4069 0003472 271.5756  76.1945 15.74964303  2597,6722.87,91.431,347.069,342.401,0.0
56786.0,STARLINK-6341,PAYLOAD,2023-06-14 22:00:00,15.7480228,0.0003377,70.0051,12.1709,274.917,185.174,-0.0065054,-0.00869279,0.0,0 STARLINK-6341,1 56786U 23078V   23165.91667824 -.00869279  00000-0 -65054-2 0  9997,2 56786  70.0051  12.1709 0003377 274.9170 185.1740 15.74802280  1304,6723.331,91.44,347.466,342.925,0.0
56786.0,STARLINK-6341,PAYLOAD,2023-06-15 12:00:02,15.73642702,0.0003216,70.0047,10.5208,266.0913,258.9795,-0.0065697,-0.0083786,0.0,0 STARLINK-6341,1 56786U 23078V   23166.50002315 -.00837860  00000-0 -65697-2 0  9995,2 56786  70.0047  10.5208 0003216 266.0913 258.9795 15.73642702  2696,6726.633,91.507,350.662,346.335,0.0
56786.0,STARLINK-6341,PAYLOAD,2023-06-15 14:00:01,15.73551753,0.0003449,70.0049,10.2853,265.2943,11.6166,-0.0075209,-0.00943418,0.0,0 STARLINK-6341,1 56786U 23078V   23166.58334491 -.00943418  00000-0 -75209-2 0  9993,2 56786  70.0049  10.2853 0003449 265.2943  11.6166 15.73551753  1301,6726.892,91.513,351.078,346.437,0.0
56786.0,STARLINK-6341,PAYLOAD,2023-06-15 20:00:01,15.73010183,0.0003584,70.0044,9.579,271.2134,341.2327,-0.0071528,-0.00883078,0.0,0 STARLINK-6341,1 56786U 23078V   23166.83334491 -.00883078  00000-0 -71528-2 0  9996,2 56786  70.0044   9.5790 0003584 271.2134 341.2327 15.73010183  2754,6728.436,91.544,352.713,347.89,0.0
56786.0,STARLINK-6341,PAYLOAD,2023-06-16 01:02:11,15.72987059,0.0002865,70.0043,8.9863,274.5316,85.5554,-0.0023615,-0.00311505,0.0,0 STARLINK-6341,1 56786U 23078V   23167.04319439 -.00311505  00000-0 -23615-2 0  9990,2 56786  70.0043   8.9863 0002865 274.5316  85.5554 15.72987059  2783,6728.502,91.546,352.295,348.44,0.0
56786.0,STARLINK-6341,PAYLOAD,2023-06-16 12:00:00,15.71729977,0.0003754,70.0039,7.6978,269.1582,155.8103,-0.007732,-0.00901845,0.0,0 STARLINK-6341,1 56786U 23078V   23167.50001157 -.00901845  00000-0 -77320-2 0  9990,2 56786  70.0039   7.6978 0003754 269.1582 155.8103 15.71729977  2855,6732.09,91.619,356.482,351.427,0.0
56786.0,STARLINK-6341,PAYLOAD,2023-06-16 14:00:01,15.71584105,0.0003629,70.0042,7.463,267.523,268.7891,-0.0080561,-0.00930516,0.0,0 STARLINK-6341,1 56786U 23078V   23167.58334491 -.00930516  00000-0 -80561-2 0  9996,2 56786  70.0042   7.4630 0003629 267.5230 268.7891 15.71584105  1304,6732.506,91.627,356.814,351.928,0.0
56786.0,STARLINK-6341,PAYLOAD,2023-06-16 22:00:00,15.70879817,0.0003666,70.0041,6.5238,273.0483,348.1837,-0.0075522,-0.00854629,0.0,0 STARLINK-6341,1 56786U 23078V   23167.91667824 -.00854629  00000-0 -75522-2 0  9993,2 56786  70.0041   6.5238 0003666 273.0483 348.1837 15.70879817  1309,6734.518,91.668,358.852,353.914,0.0
56786.0,STARLINK-6341,PAYLOAD,2023-06-17 04:00:00,15.70307284,0.000348,70.0034,5.8203,274.547,319.8546,-0.0049078,-0.00561454,0.0,0 STARLINK-6341,1 56786U 23078V   23168.16667824 -.00561454  00000-0 -49078-2 0  9999,2 56786  70.0034   5.8203 0003480 274.5470 319.8546 15.70307284  2959,6736.155,91.702,360.364,355.676,0.0
56786.0,STARLINK-6341,PAYLOAD,2023-06-17 09:07:17,15.70391876,0.0003574,70.0039,5.2202,282.5986,77.481,-0.0025733,-0.0030457,0.0,0 STARLINK-6341,1 56786U 23078V   23168.38006809 -.00304570  00000-0 -25733-2 0  9999,2 56786  70.0039   5.2202 0003574 282.5986  77.4810 15.70391876  2997,6735.913,91.697,360.186,355.371,0.0
56786.0,STARLINK-6341,PAYLOAD,2023-06-17 12:10:47,15.70230785,0.0003518,70.0039,4.862,275.0547,85.0247,-0.0020749,-0.00245669,0.0,0 STARLINK-6341,1 56786U 23078V   23168.50748891 -.00245669  00000-0 -20749-2 0  9992,2 56786  70.0039   4.8620 0003518 275.0547  85.0247 15.70230785  2758,6736.374,91.706,360.609,355.869,0.0
56786.0,STARLINK-6341,PAYLOAD,2023-06-17 16:46:01,15.70095292,0.000376,70.004,4.3246,276.3728,83.704,-0.0011311,-0.00135024,0.0,0 STARLINK-6341,1 56786U 23078V   23168.69862318 -.00135024  00000-0 -11311-2 0  9991,2 56786  70.0040   4.3246 0003760 276.3728  83.7040 15.70095292  3044,6736.761,91.714,361.159,356.093,0.0
56786.0,STARLINK-6341,PAYLOAD,2023-06-17 21:21:15,15.70014322,0.0003694,70.0038,3.7873,276.2511,83.8264,-0.00036529,-0.00044073,0.0,0 STARLINK-6341,1 56786U 23078V   23168.88976658 -.00044073  00000-0 -36529-3 0  9997,2 56786  70.0038   3.7873 0003694 276.2511  83.8264 15.70014322  2813,6736.993,91.719,361.347,356.369,0.0
56786.0,STARLINK-6341,PAYLOAD,2023-06-18 04:00:00,15.69949958,0.0003549,70.0008,3.0088,274.1497,210.4547,-0.00056389,-0.00067549,0.0,0 STARLINK-6341,1 56786U 23078V   23169.16667824 -.00067549  00000-0 -56389-3 0  9990,2 56786  70.0008   3.0088 0003549 274.1497 210.4547 15.69949958  3116,6737.177,91.723,361.433,356.651,0.0
56786.0,STARLINK-6341,PAYLOAD,2023-06-18 12:00:00,15.69926445,0.0003547,70.0008,2.0716,267.908,300.028,0.00013507,0.00016061,0.0,0 STARLINK-6341,1 56786U 23078V   23169.50001157  .00016061  00000-0  13507-3 0  9995,2 56786  70.0008   2.0716 0003547 267.9080 300.0280 15.69926445  3160,6737.244,91.724,361.499,356.72,0.0
56786.0,STARLINK-6341,PAYLOAD,2023-06-18 12:38:45,15.70073748,0.00026,70.0031,1.9969,231.0922,129.0042,0.001142,0.00140274,0.0,0 STARLINK-6341,1 56786U 23078V   23169.52692079  .00140274  00000-0  11420-2 0  9991,2 56786  70.0031   1.9969 0002600 231.0922 129.0042 15.70073748  2918,6736.823,91.715,360.44,356.936,0.0
56786.0,STARLINK-6341,PAYLOAD,2023-06-18 22:00:00,15.69898049,0.0003469,70.0006,0.8997,276.0323,126.098,0.00042351,0.00050967,0.0,0 STARLINK-6341,1 56786U 23078V   23169.91667824  .00050967  00000-0  42351-3 0  9991,2 56786  70.0006   0.8997 0003469 276.0323 126.0980 15.69898049  1304,6737.326,91.726,361.528,356.854,0.0
56786.0,STARLINK-6341,PAYLOAD,2023-06-19 04:00:00,15.69955751,0.0003433,70.0001,0.1969,273.0697,101.5477,-0.00075194,-0.00089787,0.0,0 STARLINK-6341,1 56786U 23078V   23170.16667824 -.00089787  00000-0 -75194-3 0  9995,2 56786  70.0001   0.1969 0003433 273.0697 101.5477 15.69955751  3274,6737.161,91.722,361.338,356.713,0.0
56786.0,STARLINK-6341,PAYLOAD,2023-06-19 08:31:33,15.69961468,0.0003475,70.0008,359.6676,271.7837,88.296,0.00036154,0.00043554,0.0,0 STARLINK-6341,1 56786U 23078V   23170.35525179  .00043554  00000-0  36154-3 0  9995,2 56786  70.0008 359.6676 0003475 271.7837  88.2960 15.69961468  3309,6737.144,91.722,361.35,356.668,0.0
56786.0,STARLINK-6341,PAYLOAD,2023-06-19 13:06:49,15.69929231,0.0003235,70.0011,359.1296,263.7517,96.3311,0.00033665,0.0004047,0.0,0 STARLINK-6341,1 56786U 23078V   23170.54640536  .00040470  00000-0  33665-3 0  9999,2 56786  70.0011 359.1296 0003235 263.7517  96.3311 15.69929231  3072,6737.236,91.724,361.281,356.922,0.0
56786.0,STARLINK-6341,PAYLOAD,2023-06-19 20:00:01,15.69878336,0.0003617,70.0001,358.3227,276.4111,264.9021,0.00042075,0.00050591,0.0,0 STARLINK-6341,1 56786U 23078V   23170.83334491  .00050591  00000-0  42075-3 0  9991,2 56786  70.0001 358.3227 0003617 276.4111 264.9021 15.69878336  3374,6737.382,91.727,361.684,356.81,0.0
56786.0,STARLINK-6341,PAYLOAD,2023-06-20 12:00:00,15.69946263,0.0003702,69.9999,356.4481,272.4798,75.4718,-0.00026011,-0.00031403,0.0,0 STARLINK-6341,1 56786U 23078V   23171.50001157 -.00031403  00000-0 -26011-3 0  9991,2 56786  69.9999 356.4481 0003702 272.4798  75.4718 15.69946263  3485,6737.188,91.723,361.547,356.559,0.0
56786.0,STARLINK-6341,PAYLOAD,2023-06-20 14:00:01,15.69956915,0.0003732,70.0,356.2136,273.8448,184.9422,-0.00053628,-0.00064298,0.0,0 STARLINK-6341,1 56786U 23078V   23171.58334491 -.00064298  00000-0 -53628-3 0  9991,2 56786  70.0000 356.2136 0003732 273.8448 184.9422 15.69956915  1308,6737.157,91.722,361.537,356.508,0.0
56786.0,STARLINK-6341,PAYLOAD,2023-06-20 22:00:00,15.69896473,0.0003744,70.0,355.2762,280.2201,261.9158,0.00049859,0.00060104,0.0,0 STARLINK-6341,1 56786U 23078V   23171.91667824  .00060104  00000-0  49859-3 0  9998,2 56786  70.0000 355.2762 0003744 280.2201 261.9158 15.69896473  1308,6737.33,91.726,361.718,356.673,0.0
56786.0,STARLINK-6341,PAYLOAD,2023-06-21 01:48:52,15.69944968,0.0003705,70.0001,354.8299,277.7319,82.3456,0.00024159,0.00028964,0.0,0 STARLINK-6341,1 56786U 23078V   23172.07560677  .00028964  00000-0  24159-3 0  9998,2 56786  70.0001 354.8299 0003705 277.7319  82.3456 15.69944968  3577,6737.191,91.723,361.553,356.56,0.0
56786.0,STARLINK-6341,PAYLOAD,2023-06-21 12:31:08,15.69929145,0.0003818,70.0002,353.5759,276.5596,83.5165,0.00011529,0.00013676,0.0,0 STARLINK-6341,1 56786U 23078V   23172.52162527  .00013676  00000-0  11529-3 0  9991,2 56786  70.0002 353.5759 0003818 276.5596  83.5165 15.69929145  3642,6737.237,91.724,361.674,356.529,0.0
